{
  "norad_id": 49166,
  "name": "STARLINK-3089",
  "history": [
    {
      "epoch": "2026-03-28T17:55:22.261152Z",
      "apogee_km": 576.6618395790883,
      "perigee_km": 572.4247371577512,
      "latitude_deg": -4.196273863697449e-05,
      "longitude_deg": 132.24682883624268,
      "height_km": 576.9487652949884,
      "semi_major_axis_km": 6952.6802883684195,
      "eccentricity": 0.00030471,
      "inclination_deg": 70.0003,
      "raan_deg": 227.2524,
      "arg_perigee_deg": 270.5728,
      "mean_anomaly_deg": 89.5081,
      "mean_motion_rev_day": 14.97526006
    },
    {
      "epoch": "2026-03-29T01:56:18.242016Z",
      "apogee_km": 576.6557512757608,
      "perigee_km": 572.4410333909291,
      "latitude_deg": -2.9037320413406026e-05,
      "longitude_deg": 10.84339290614297,
      "height_km": 576.9437032311707,
      "semi_major_axis_km": 6952.685392333345,
      "eccentricity": 0.0003031,
      "inclination_deg": 70.0004,
      "raan_deg": 226.4114,
      "arg_perigee_deg": 270.8519,
      "mean_anomaly_deg": 89.2292,
      "mean_motion_rev_day": 14.97524357
    }
  ]
}